ONEWEB-0229             
1 48779U 21045N   26138.09514985  .00000026  00000+0  35383-4 0  9991
2 48779  87.8986 265.1854 0001912  95.6261 264.5087 13.15549493240457
ONEWEB-0228             
1 48780U 21045P   26138.05252273 -.00000015  00000+0 -74675-4 0  9995
2 48780  87.9003 265.1848 0001816  97.7740 262.3597 13.15549024240363
ONEWEB-0232             
1 48781U 21045Q   26138.10309485  .00000107  00000+0  24886-3 0  9998
2 48781  87.8989 265.1763 0001824 101.1666 258.9669 13.15548590240692
ONEWEB-0231             
1 48782U 21045R   26138.08089050 -.00000112  00000+0 -33100-3 0  9996
2 48782  87.8977 265.1960 0001696  94.5485 265.5839 13.15550139240381
ONEWEB-0234             
1 48783U 21045S   26138.04272690  .00000080  00000+0  17781-3 0  9996
2 48783  87.8992 265.1846 0001715 126.5916 233.5372 13.15546590240517
ONEWEB-0238             
1 48784U 21045T   26138.11907980  .00000142  00000+0  34283-3 0  9997
2 48784  87.8994 265.1622 0001726 112.6679 247.4634 13.15549208240420
ONEWEB-0240             
1 48785U 21045U   26138.06426653 -.00000073  00000+0 -22765-3 0  9992
2 48785  87.9001 265.1835 0001504  97.0419 263.0882 13.15550072240441
ONEWEB-0246             
1 48786U 21045V   26138.05872075 -.00000013  00000+0 -68527-4 0  9996
2 48786  87.8995 265.1901 0001913  95.9182 264.2166 13.15549607240311
ONEWEB-0210             
1 48787U 21045W   26138.10943875  .00000289  00000+0  73484-3 0  9990
2 48787  87.8994 265.1767 0002103  74.9519 285.1844 13.15548508240363
ONEWEB-0214             
1 48788U 21045X   26137.58574800  .00000080  00000+0  17811-3 0  9991
2 48788  87.8994 265.2777 0002097  90.4885 269.6486 13.15548722240263
ONEWEB-0221             
1 48789U 21045Y   26137.82102611  .00000030  00000+0  44580-4 0  9995
2 48789  87.8998 265.2399 0001708  94.9959 265.1367 13.15550300240384
ONEWEB-0213             
1 48790U 21045Z   26138.11417894  .00000191  00000+0  47315-3 0  9998
2 48790  87.8992 265.1849 0001774  89.9403 270.1931 13.15549348240484
ONEWEB-0212             
1 48791U 21045AA  26138.09120983  .00000014  00000+0  19155-5 0  9993
2 48791  87.8988 265.1835 0001875 101.4338 258.7003 13.15547797240471
ONEWEB-0227             
1 48792U 21045AB  26138.09040044 -.00000016  00000+0 -75271-4 0  9997
2 48792  87.8987 265.1850 0001787  98.7413 261.3920 13.15546821240422
ONEWEB-0226             
1 48793U 21045AC  26137.77984510 -.00000024  00000+0 -98647-4 0  9998
2 48793  87.8985 265.2523 0001869  90.9192 269.2153 13.15547439240351
ONEWEB-0224             
1 48794U 21045AD  26138.04762911  .00000084  00000+0  19010-3 0  9999
2 48794  87.8986 265.2343 0001073 119.6882 240.4355 13.15549375240317
