[{"OBJECT_NAME":"ONEWEB-0229","OBJECT_ID":"2021-045N","EPOCH":"2026-05-18T02:17:00.947040","MEAN_MOTION":13.15549493,"ECCENTRICITY":0.0001912,"INCLINATION":87.8986,"RA_OF_ASC_NODE":265.1854,"ARG_OF_PERICENTER":95.6261,"MEAN_ANOMALY":264.5087,"EPHEMERIS_TYPE":0,"CLASSIFICATION_TYPE":"U","NORAD_CAT_ID":48779,"ELEMENT_SET_NO":999,"REV_AT_EPOCH":24045,"BSTAR":3.5382999999999996e-05,"MEAN_MOTION_DOT":2.6e-07,"MEAN_MOTION_DDOT":0.0},{"OBJECT_NAME":"ONEWEB-0228","OBJECT_ID":"2021-045P","EPOCH":"2026-05-18T01:15:37.963872","MEAN_MOTION":13.15549024,"ECCENTRICITY":0.0001816,"INCLINATION":87.9003,"RA_OF_ASC_NODE":265.1848,"ARG_OF_PERICENTER":97.774,"MEAN_ANOMALY":262.3597,"EPHEMERIS_TYPE":0,"CLASSIFICATION_TYPE":"U","NORAD_CAT_ID":48780,"ELEMENT_SET_NO":999,"REV_AT_EPOCH":24036,"BSTAR":-7.467500000000001e-05,"MEAN_MOTION_DOT":-1.5e-07,"MEAN_MOTION_DDOT":0.0},{"OBJECT_NAME":"ONEWEB-0232","OBJECT_ID":"2021-045Q","EPOCH":"2026-05-18T02:28:27.395040","MEAN_MOTION":13.1554859,"ECCENTRICITY":0.0001824,"INCLINATION":87.8989,"RA_OF_ASC_NODE":265.1763,"ARG_OF_PERICENTER":101.1666,"MEAN_ANOMALY":258.9669,"EPHEMERIS_TYPE":0,"CLASSIFICATION_TYPE":"U","NORAD_CAT_ID":48781,"ELEMENT_SET_NO":999,"REV_AT_EPOCH":24069,"BSTAR":0.00024886,"MEAN_MOTION_DOT":1.07e-06,"MEAN_MOTION_DDOT":0.0},{"OBJECT_NAME":"ONEWEB-0231","OBJECT_ID":"2021-045R","EPOCH":"2026-05-18T01:56:28.939200","MEAN_MOTION":13.15550139,"ECCENTRICITY":0.0001696,"INCLINATION":87.8977,"RA_OF_ASC_NODE":265.196,"ARG_OF_PERICENTER":94.5485,"MEAN_ANOMALY":265.5839,"EPHEMERIS_TYPE":0,"CLASSIFICATION_TYPE":"U","NORAD_CAT_ID":48782,"ELEMENT_SET_NO":999,"REV_AT_EPOCH":24038,"BSTAR":-0.000331,"MEAN_MOTION_DOT":-1.12e-06,"MEAN_MOTION_DDOT":0.0},{"OBJECT_NAME":"ONEWEB-0234","OBJECT_ID":"2021-045S","EPOCH":"2026-05-18T01:01:31.604160","MEAN_MOTION":13.1554659,"ECCENTRICITY":0.0001715,"INCLINATION":87.8992,"RA_OF_ASC_NODE":265.1846,"ARG_OF_PERICENTER":126.5916,"MEAN_ANOMALY":233.5372,"EPHEMERIS_TYPE":0,"CLASSIFICATION_TYPE":"U","NORAD_CAT_ID":48783,"ELEMENT_SET_NO":999,"REV_AT_EPOCH":24051,"BSTAR":0.00017781,"MEAN_MOTION_DOT":8e-07,"MEAN_MOTION_DDOT":0.0},{"OBJECT_NAME":"ONEWEB-0238","OBJECT_ID":"2021-045T","EPOCH":"2026-05-18T02:51:28.494720","MEAN_MOTION":13.15549208,"ECCENTRICITY":0.0001726,"INCLINATION":87.8994,"RA_OF_ASC_NODE":265.1622,"ARG_OF_PERICENTER":112.6679,"MEAN_ANOMALY":247.4634,"EPHEMERIS_TYPE":0,"CLASSIFICATION_TYPE":"U","NORAD_CAT_ID":48784,"ELEMENT_SET_NO":999,"REV_AT_EPOCH":24042,"BSTAR":0.00034283,"MEAN_MOTION_DOT":1.42e-06,"MEAN_MOTION_DDOT":0.0},{"OBJECT_NAME":"ONEWEB-0240","OBJECT_ID":"2021-045U","EPOCH":"2026-05-18T01:32:32.628192","MEAN_MOTION":13.15550072,"ECCENTRICITY":0.0001504,"INCLINATION":87.9001,"RA_OF_ASC_NODE":265.1835,"ARG_OF_PERICENTER":97.0419,"MEAN_ANOMALY":263.0882,"EPHEMERIS_TYPE":0,"CLASSIFICATION_TYPE":"U","NORAD_CAT_ID":48785,"ELEMENT_SET_NO":999,"REV_AT_EPOCH":24044,"BSTAR":-0.00022765,"MEAN_MOTION_DOT":-7.3e-07,"MEAN_MOTION_DDOT":0.0},{"OBJECT_NAME":"ONEWEB-0246","OBJECT_ID":"2021-045V","EPOCH":"2026-05-18T01:24:33.472800","MEAN_MOTION":13.15549607,"ECCENTRICITY":0.0001913,"INCLINATION":87.8995,"RA_OF_ASC_NODE":265.1901,"ARG_OF_PERICENTER":95.9182,"MEAN_ANOMALY":264.2166,"EPHEMERIS_TYPE":0,"CLASSIFICATION_TYPE":"U","NORAD_CAT_ID":48786,"ELEMENT_SET_NO":999,"REV_AT_EPOCH":24031,"BSTAR":-6.8527e-05,"MEAN_MOTION_DOT":-1.3e-07,"MEAN_MOTION_DDOT":0.0},{"OBJECT_NAME":"ONEWEB-0210","OBJECT_ID":"2021-045W","EPOCH":"2026-05-18T02:37:35.508000","MEAN_MOTION":13.15548508,"ECCENTRICITY":0.0002103,"INCLINATION":87.8994,"RA_OF_ASC_NODE":265.1767,"ARG_OF_PERICENTER":74.9519,"MEAN_ANOMALY":285.1844,"EPHEMERIS_TYPE":0,"CLASSIFICATION_TYPE":"U","NORAD_CAT_ID":48787,"ELEMENT_SET_NO":999,"REV_AT_EPOCH":24036,"BSTAR":0.0007348400000000001,"MEAN_MOTION_DOT":2.89e-06,"MEAN_MOTION_DDOT":0.0},{"OBJECT_NAME":"ONEWEB-0214","OBJECT_ID":"2021-045X","EPOCH":"2026-05-17T14:03:28.627200","MEAN_MOTION":13.15548722,"ECCENTRICITY":0.0002097,"INCLINATION":87.8994,"RA_OF_ASC_NODE":265.2777,"ARG_OF_PERICENTER":90.4885,"MEAN_ANOMALY":269.6486,"EPHEMERIS_TYPE":0,"CLASSIFICATION_TYPE":"U","NORAD_CAT_ID":48788,"ELEMENT_SET_NO":999,"REV_AT_EPOCH":24026,"BSTAR":0.00017811,"MEAN_MOTION_DOT":8e-07,"MEAN_MOTION_DDOT":0.0},{"OBJECT_NAME":"ONEWEB-0221","OBJECT_ID":"2021-045Y","EPOCH":"2026-05-17T19:42:16.655904","MEAN_MOTION":13.155503,"ECCENTRICITY":0.0001708,"INCLINATION":87.8998,"RA_OF_ASC_NODE":265.2399,"ARG_OF_PERICENTER":94.9959,"MEAN_ANOMALY":265.1367,"EPHEMERIS_TYPE":0,"CLASSIFICATION_TYPE":"U","NORAD_CAT_ID":48789,"ELEMENT_SET_NO":999,"REV_AT_EPOCH":24038,"BSTAR":4.458e-05,"MEAN_MOTION_DOT":3e-07,"MEAN_MOTION_DDOT":0.0},{"OBJECT_NAME":"ONEWEB-0213","OBJECT_ID":"2021-045Z","EPOCH":"2026-05-18T02:44:25.060416","MEAN_MOTION":13.15549348,"ECCENTRICITY":0.0001774,"INCLINATION":87.8992,"RA_OF_ASC_NODE":265.1849,"ARG_OF_PERICENTER":89.9403,"MEAN_ANOMALY":270.1931,"EPHEMERIS_TYPE":0,"CLASSIFICATION_TYPE":"U","NORAD_CAT_ID":48790,"ELEMENT_SET_NO":999,"REV_AT_EPOCH":24048,"BSTAR":0.00047315000000000004,"MEAN_MOTION_DOT":1.91e-06,"MEAN_MOTION_DDOT":0.0},{"OBJECT_NAME":"ONEWEB-0212","OBJECT_ID":"2021-045AA","EPOCH":"2026-05-18T02:11:20.529312","MEAN_MOTION":13.15547797,"ECCENTRICITY":0.0001875,"INCLINATION":87.8988,"RA_OF_ASC_NODE":265.1835,"ARG_OF_PERICENTER":101.4338,"MEAN_ANOMALY":258.7003,"EPHEMERIS_TYPE":0,"CLASSIFICATION_TYPE":"U","NORAD_CAT_ID":48791,"ELEMENT_SET_NO":999,"REV_AT_EPOCH":24047,"BSTAR":1.9155e-06,"MEAN_MOTION_DOT":1.4e-07,"MEAN_MOTION_DDOT":0.0},{"OBJECT_NAME":"ONEWEB-0227","OBJECT_ID":"2021-045AB","EPOCH":"2026-05-18T02:10:10.598016","MEAN_MOTION":13.15546821,"ECCENTRICITY":0.0001787,"INCLINATION":87.8987,"RA_OF_ASC_NODE":265.185,"ARG_OF_PERICENTER":98.7413,"MEAN_ANOMALY":261.392,"EPHEMERIS_TYPE":0,"CLASSIFICATION_TYPE":"U","NORAD_CAT_ID":48792,"ELEMENT_SET_NO":999,"REV_AT_EPOCH":24042,"BSTAR":-7.5271e-05,"MEAN_MOTION_DOT":-1.6e-07,"MEAN_MOTION_DDOT":0.0},{"OBJECT_NAME":"ONEWEB-0226","OBJECT_ID":"2021-045AC","EPOCH":"2026-05-17T18:42:58.616640","MEAN_MOTION":13.15547439,"ECCENTRICITY":0.0001869,"INCLINATION":87.8985,"RA_OF_ASC_NODE":265.2523,"ARG_OF_PERICENTER":90.9192,"MEAN_ANOMALY":269.2153,"EPHEMERIS_TYPE":0,"CLASSIFICATION_TYPE":"U","NORAD_CAT_ID":48793,"ELEMENT_SET_NO":999,"REV_AT_EPOCH":24035,"BSTAR":-9.8647e-05,"MEAN_MOTION_DOT":-2.4e-07,"MEAN_MOTION_DDOT":0.0},{"OBJECT_NAME":"ONEWEB-0224","OBJECT_ID":"2021-045AD","EPOCH":"2026-05-18T01:08:35.155104","MEAN_MOTION":13.15549375,"ECCENTRICITY":0.0001073,"INCLINATION":87.8986,"RA_OF_ASC_NODE":265.2343,"ARG_OF_PERICENTER":119.6882,"MEAN_ANOMALY":240.4355,"EPHEMERIS_TYPE":0,"CLASSIFICATION_TYPE":"U","NORAD_CAT_ID":48794,"ELEMENT_SET_NO":999,"REV_AT_EPOCH":24031,"BSTAR":0.00019009999999999999,"MEAN_MOTION_DOT":8.4e-07,"MEAN_MOTION_DDOT":0.0}]